SL-16 R/B               
1 22803U 93059B   26111.81367185 -.00000147  00000+0 -49125-4 0  9999
2 22803  70.9890 280.1852 0016022 151.1998 209.0014 14.17238239685646
ARIANE 40 R/B           
1 22830U 93061H   26111.64403045  .00000126  00000+0  61998-4 0  9996
2 22830  98.4849 179.6680 0011414 151.8199 208.3605 14.32882487700256
COSMOS 2278             
1 23087U 94023A   26111.66840778  .00000291  00000+0  17645-3 0  9992
2 23087  71.0524  85.1754 0010216 313.2217  46.8051 14.14384737650883
SL-16 R/B               
1 23088U 94023B   26111.83684624 -.00000215  00000+0 -86329-4 0  9992
2 23088  71.0006 340.2760 0005349 246.9663 113.0896 14.15016077652199
SL-16 R/B               
1 23343U 94074B   26111.83014830  .00000262  00000+0  41716-4 0  9999
2 23343  97.7044 140.8878 0008090  83.1598  89.6097 14.79452698693625
SL-16 R/B               
1 23405U 94077B   26111.80165324  .00000235  00000+0  14463-3 0  9991
2 23405  70.9821 261.7859 0000667 140.3916 219.7256 14.15570671622339
ARIANE 40+ R/B          
1 23561U 95021B   26111.47693488  .00000192  00000+0  74951-4 0  9995
2 23561  98.4435 182.3650 0007007  24.5771 346.1749 14.39801035625402
SL-16 R/B               
1 23705U 95058B   26111.66939532 -.00000021  00000+0  13584-4 0  9996
2 23705  71.0201  90.0183 0010797  46.4000 313.8017 14.15505241573937
SL-16 R/B               
1 24298U 96051B   26111.65854167  .00000052  00000+0  54548-4 0  9995
2 24298  70.7592  84.2886 0012514  74.1532 286.0966 14.12426589527719
ORBVIEW 2 (SEASTAR)     
1 24883U 97037A   26111.84180399  .00000178  00000+0  78138-4 0  9990
2 24883  98.8637 277.3134 0001200 309.6638  50.4440 14.35522942514669
SL-16 R/B               
1 25400U 98043G   26111.81174779  .00000038  00000+0  35072-4 0  9991
2 25400  98.8322  65.5004 0008807 247.3844 112.6404 14.26059034445139
SL-16 R/B               
1 25407U 98045B   26111.65920387 -.00000239  00000+0 -96270-4 0  9998
2 25407  71.0095  91.2085 0009225 308.2407  51.7885 14.16198229433185
ISS (ZARYA)             
1 25544U 98067A   26111.74820810  .00009534  00000+0  18169-3 0  9999
2 25544  51.6323 219.4368 0006711 334.6967  25.3692 15.48877266563003
CZ-4B R/B               
1 25732U 99025C   26111.86294199  .00000005  00000+0  23417-4 0  9998
2 25732  98.6542 155.1041 0036426 219.3122 314.0713 14.18273390394286
OKEAN-O                 
1 25860U 99039A   26111.64037326  .00000378  00000+0  56326-4 0  9996
2 25860  97.9364 171.0765 0001427 115.4164 244.7195 14.80397415440747
SL-16 R/B               
1 25861U 99039B   26111.64748895  .00000329  00000+0  48495-4 0  9991
2 25861  97.9885 170.6606 0016097 116.0437 244.2435 14.81785712443224
DELTA 2 R/B             
1 25876U 99041E   26111.26869560  .00000262  00000+0  82400-4 0  9991
2 25876  51.7596 131.1795 0502518 113.9871 251.4503 14.11922398369043
