[{"OBJECT_NAME":"SL-16 R/B","OBJECT_ID":"1993-059B","EPOCH":"2026-04-21T19:31:41.247840","MEAN_MOTION":14.17238239,"ECCENTRICITY":0.0016022,"INCLINATION":70.989,"RA_OF_ASC_NODE":280.1852,"ARG_OF_PERICENTER":151.1998,"MEAN_ANOMALY":209.0014,"EPHEMERIS_TYPE":0,"CLASSIFICATION_TYPE":"U","NORAD_CAT_ID":22803,"ELEMENT_SET_NO":999,"REV_AT_EPOCH":68564,"BSTAR":-4.9125e-5,"MEAN_MOTION_DOT":-1.47e-6,"MEAN_MOTION_DDOT":0},{"OBJECT_NAME":"ARIANE 40 R/B","OBJECT_ID":"1993-061H","EPOCH":"2026-04-21T15:27:24.230880","MEAN_MOTION":14.32882487,"ECCENTRICITY":0.0011414,"INCLINATION":98.4849,"RA_OF_ASC_NODE":179.668,"ARG_OF_PERICENTER":151.8199,"MEAN_ANOMALY":208.3605,"EPHEMERIS_TYPE":0,"CLASSIFICATION_TYPE":"U","NORAD_CAT_ID":22830,"ELEMENT_SET_NO":999,"REV_AT_EPOCH":70025,"BSTAR":6.1998e-5,"MEAN_MOTION_DOT":1.26e-6,"MEAN_MOTION_DDOT":0},{"OBJECT_NAME":"COSMOS 2278","OBJECT_ID":"1994-023A","EPOCH":"2026-04-21T16:02:30.432192","MEAN_MOTION":14.14384737,"ECCENTRICITY":0.0010216,"INCLINATION":71.0524,"RA_OF_ASC_NODE":85.1754,"ARG_OF_PERICENTER":313.2217,"MEAN_ANOMALY":46.8051,"EPHEMERIS_TYPE":0,"CLASSIFICATION_TYPE":"U","NORAD_CAT_ID":23087,"ELEMENT_SET_NO":999,"REV_AT_EPOCH":65088,"BSTAR":0.00017645,"MEAN_MOTION_DOT":2.91e-6,"MEAN_MOTION_DDOT":0},{"OBJECT_NAME":"SL-16 R/B","OBJECT_ID":"1994-023B","EPOCH":"2026-04-21T20:05:03.515136","MEAN_MOTION":14.15016077,"ECCENTRICITY":0.0005349,"INCLINATION":71.0006,"RA_OF_ASC_NODE":340.276,"ARG_OF_PERICENTER":246.9663,"MEAN_ANOMALY":113.0896,"EPHEMERIS_TYPE":0,"CLASSIFICATION_TYPE":"U","NORAD_CAT_ID":23088,"ELEMENT_SET_NO":999,"REV_AT_EPOCH":65219,"BSTAR":-8.6329e-5,"MEAN_MOTION_DOT":-2.15e-6,"MEAN_MOTION_DDOT":0},{"OBJECT_NAME":"SL-16 R/B","OBJECT_ID":"1994-074B","EPOCH":"2026-04-21T19:55:24.813120","MEAN_MOTION":14.79452698,"ECCENTRICITY":0.000809,"INCLINATION":97.7044,"RA_OF_ASC_NODE":140.8878,"ARG_OF_PERICENTER":83.1598,"MEAN_ANOMALY":89.6097,"EPHEMERIS_TYPE":0,"CLASSIFICATION_TYPE":"U","NORAD_CAT_ID":23343,"ELEMENT_SET_NO":999,"REV_AT_EPOCH":69362,"BSTAR":4.1716e-5,"MEAN_MOTION_DOT":2.62e-6,"MEAN_MOTION_DDOT":0},{"OBJECT_NAME":"SL-16 R/B","OBJECT_ID":"1994-077B","EPOCH":"2026-04-21T19:14:22.839936","MEAN_MOTION":14.15570671,"ECCENTRICITY":6.67e-5,"INCLINATION":70.9821,"RA_OF_ASC_NODE":261.7859,"ARG_OF_PERICENTER":140.3916,"MEAN_ANOMALY":219.7256,"EPHEMERIS_TYPE":0,"CLASSIFICATION_TYPE":"U","NORAD_CAT_ID":23405,"ELEMENT_SET_NO":999,"REV_AT_EPOCH":62233,"BSTAR":0.00014463,"MEAN_MOTION_DOT":2.35e-6,"MEAN_MOTION_DDOT":0},{"OBJECT_NAME":"ARIANE 40+ R/B","OBJECT_ID":"1995-021B","EPOCH":"2026-04-21T11:26:47.173632","MEAN_MOTION":14.39801035,"ECCENTRICITY":0.00070079,"INCLINATION":98.4435,"RA_OF_ASC_NODE":182.365,"ARG_OF_PERICENTER":24.5771,"MEAN_ANOMALY":346.1749,"EPHEMERIS_TYPE":0,"CLASSIFICATION_TYPE":"U","NORAD_CAT_ID":23561,"ELEMENT_SET_NO":999,"REV_AT_EPOCH":62540,"BSTAR":7.4951132e-5,"MEAN_MOTION_DOT":1.92e-6,"MEAN_MOTION_DDOT":0},{"OBJECT_NAME":"SL-16 R/B","OBJECT_ID":"1995-058B","EPOCH":"2026-04-21T16:03:55.755648","MEAN_MOTION":14.15505241,"ECCENTRICITY":0.0010797,"INCLINATION":71.0201,"RA_OF_ASC_NODE":90.0183,"ARG_OF_PERICENTER":46.4,"MEAN_ANOMALY":313.8017,"EPHEMERIS_TYPE":0,"CLASSIFICATION_TYPE":"U","NORAD_CAT_ID":23705,"ELEMENT_SET_NO":999,"REV_AT_EPOCH":57393,"BSTAR":1.3584e-5,"MEAN_MOTION_DOT":-2.1e-7,"MEAN_MOTION_DDOT":0},{"OBJECT_NAME":"SL-16 R/B","OBJECT_ID":"1996-051B","EPOCH":"2026-04-21T15:48:18.000288","MEAN_MOTION":14.12426589,"ECCENTRICITY":0.0012514,"INCLINATION":70.7592,"RA_OF_ASC_NODE":84.2886,"ARG_OF_PERICENTER":74.1532,"MEAN_ANOMALY":286.0966,"EPHEMERIS_TYPE":0,"CLASSIFICATION_TYPE":"U","NORAD_CAT_ID":24298,"ELEMENT_SET_NO":999,"REV_AT_EPOCH":52771,"BSTAR":5.4548e-5,"MEAN_MOTION_DOT":5.2e-7,"MEAN_MOTION_DDOT":0},{"OBJECT_NAME":"ORBVIEW 2 (SEASTAR)","OBJECT_ID":"1997-037A","EPOCH":"2026-04-21T20:12:11.864736","MEAN_MOTION":14.35522942,"ECCENTRICITY":0.00012,"INCLINATION":98.8637,"RA_OF_ASC_NODE":277.3134,"ARG_OF_PERICENTER":309.6638,"MEAN_ANOMALY":50.444,"EPHEMERIS_TYPE":0,"CLASSIFICATION_TYPE":"U","NORAD_CAT_ID":24883,"ELEMENT_SET_NO":999,"REV_AT_EPOCH":51466,"BSTAR":7.8138e-5,"MEAN_MOTION_DOT":1.78e-6,"MEAN_MOTION_DDOT":0},{"OBJECT_NAME":"SL-16 R/B","OBJECT_ID":"1998-043G","EPOCH":"2026-04-21T19:28:55.009056","MEAN_MOTION":14.26059034,"ECCENTRICITY":0.0008807,"INCLINATION":98.8322,"RA_OF_ASC_NODE":65.5004,"ARG_OF_PERICENTER":247.3844,"MEAN_ANOMALY":112.6404,"EPHEMERIS_TYPE":0,"CLASSIFICATION_TYPE":"U","NORAD_CAT_ID":25400,"ELEMENT_SET_NO":999,"REV_AT_EPOCH":44513,"BSTAR":3.5072e-5,"MEAN_MOTION_DOT":3.8e-7,"MEAN_MOTION_DDOT":0},{"OBJECT_NAME":"SL-16 R/B","OBJECT_ID":"1998-045B","EPOCH":"2026-04-21T15:49:15.214368","MEAN_MOTION":14.16198229,"ECCENTRICITY":0.0009225,"INCLINATION":71.0095,"RA_OF_ASC_NODE":91.2085,"ARG_OF_PERICENTER":308.2407,"MEAN_ANOMALY":51.7885,"EPHEMERIS_TYPE":0,"CLASSIFICATION_TYPE":"U","NORAD_CAT_ID":25407,"ELEMENT_SET_NO":999,"REV_AT_EPOCH":43318,"BSTAR":-9.627e-5,"MEAN_MOTION_DOT":-2.39e-6,"MEAN_MOTION_DDOT":0},{"OBJECT_NAME":"ISS (ZARYA)","OBJECT_ID":"1998-067A","EPOCH":"2026-04-21T17:57:25.179840","MEAN_MOTION":15.48877266,"ECCENTRICITY":0.0006711,"INCLINATION":51.6323,"RA_OF_ASC_NODE":219.4368,"ARG_OF_PERICENTER":334.6967,"MEAN_ANOMALY":25.3692,"EPHEMERIS_TYPE":0,"CLASSIFICATION_TYPE":"U","NORAD_CAT_ID":25544,"ELEMENT_SET_NO":999,"REV_AT_EPOCH":56300,"BSTAR":0.00018169,"MEAN_MOTION_DOT":9.534e-5,"MEAN_MOTION_DDOT":0},{"OBJECT_NAME":"CZ-4B R/B","OBJECT_ID":"1999-025C","EPOCH":"2026-04-21T20:42:38.187936","MEAN_MOTION":14.1827339,"ECCENTRICITY":0.0036426,"INCLINATION":98.6542,"RA_OF_ASC_NODE":155.1041,"ARG_OF_PERICENTER":219.3122,"MEAN_ANOMALY":314.0713,"EPHEMERIS_TYPE":0,"CLASSIFICATION_TYPE":"U","NORAD_CAT_ID":25732,"ELEMENT_SET_NO":999,"REV_AT_EPOCH":39428,"BSTAR":2.3417e-5,"MEAN_MOTION_DOT":5.0e-8,"MEAN_MOTION_DDOT":0},{"OBJECT_NAME":"OKEAN-O","OBJECT_ID":"1999-039A","EPOCH":"2026-04-21T15:22:08.249664","MEAN_MOTION":14.80397415,"ECCENTRICITY":0.0001427,"INCLINATION":97.9364,"RA_OF_ASC_NODE":171.0765,"ARG_OF_PERICENTER":115.4164,"MEAN_ANOMALY":244.7195,"EPHEMERIS_TYPE":0,"CLASSIFICATION_TYPE":"U","NORAD_CAT_ID":25860,"ELEMENT_SET_NO":999,"REV_AT_EPOCH":44074,"BSTAR":5.6326e-5,"MEAN_MOTION_DOT":3.78e-6,"MEAN_MOTION_DDOT":0},{"OBJECT_NAME":"SL-16 R/B","OBJECT_ID":"1999-039B","EPOCH":"2026-04-21T15:32:23.045280","MEAN_MOTION":14.81785712,"ECCENTRICITY":0.0016097,"INCLINATION":97.9885,"RA_OF_ASC_NODE":170.6606,"ARG_OF_PERICENTER":116.0437,"MEAN_ANOMALY":244.2435,"EPHEMERIS_TYPE":0,"CLASSIFICATION_TYPE":"U","NORAD_CAT_ID":25861,"ELEMENT_SET_NO":999,"REV_AT_EPOCH":44322,"BSTAR":4.8495e-5,"MEAN_MOTION_DOT":3.29e-6,"MEAN_MOTION_DDOT":0},{"OBJECT_NAME":"DELTA 2 R/B","OBJECT_ID":"1999-041E","EPOCH":"2026-04-21T06:26:55.299840","MEAN_MOTION":14.11922398,"ECCENTRICITY":0.05025189,"INCLINATION":51.7596,"RA_OF_ASC_NODE":131.1795,"ARG_OF_PERICENTER":113.9871,"MEAN_ANOMALY":251.4503,"EPHEMERIS_TYPE":0,"CLASSIFICATION_TYPE":"U","NORAD_CAT_ID":25876,"ELEMENT_SET_NO":999,"REV_AT_EPOCH":36904,"BSTAR":8.2400046e-5,"MEAN_MOTION_DOT":2.62e-6,"MEAN_MOTION_DDOT":0}]
